{"type": "FeatureCollection", "features": [ {"type": "Feature", "properties": {"norad_id": 64901, "name": "CO3D 4", "group": "resource", "lat": 51.49615731986753, "lon": -117.76452876707806, "alt_km": 500.7726357721649, "timestamp": "2025-12-02T06:27:52.679147+00:00", "meta": {"OBJECT_NAME": "CO3D 4", "OBJECT_ID": "2025-156C", "EPOCH": "2025-12-01T18:50:45.474720", "MEAN_MOTION": 15.20204195, "ECCENTRICITY": 0.0001211, "INCLINATION": 97.4354, "RA_OF_ASC_NODE": 52.3098, "ARG_OF_PERICENTER": 238.3057, "MEAN_ANOMALY": 121.806, "EPHEMERIS_TYPE": 0, "CLASSIFICATION_TYPE": "U", "NORAD_CAT_ID": 64901, "ELEMENT_SET_NO": 999, "REV_AT_EPOCH": 1954, "BSTAR": -1.4421e-05, "MEAN_MOTION_DOT": -3.8e-06, "MEAN_MOTION_DDOT": 0}, "tle": {"line1": "1 64901U 25156C   25335.78524855 -.00000380  00000+0 -14421-4 0  9999", "line2": "2 64901  97.4354  52.3098 0001211 238.3057 121.8060 15.20204195 19540"}}, "geometry": {"type": "Point", "coordinates": [-117.76452876707806, 51.49615731986753]}}, {"type": "Feature", "properties": {"norad_id": 64902, "name": "CO3D 2", "group": "resource", "lat": -49.29008871575428, "lon": 61.415565084084605, "alt_km": 512.7757762723204, "timestamp": "2025-12-02T06:27:52.679157+00:00", "meta": {"OBJECT_NAME": "CO3D 2", "OBJECT_ID": "2025-156D", "EPOCH": "2025-12-01T19:37:31.764000", "MEAN_MOTION": 15.20212258, "ECCENTRICITY": 9.93e-05, "INCLINATION": 97.4353, "RA_OF_ASC_NODE": 52.2404, "ARG_OF_PERICENTER": 118.7701, "MEAN_ANOMALY": 241.3634, "EPHEMERIS_TYPE": 0, "CLASSIFICATION_TYPE": "U", "NORAD_CAT_ID": 64902, "ELEMENT_SET_NO": 999, "REV_AT_EPOCH": 1954, "BSTAR": 0.00031387, "MEAN_MOTION_DOT": 6.735e-05, "MEAN_MOTION_DDOT": 0}, "tle": {"line1": "1 64902U 25156D   25335.81772875  .00006735  00000+0  31387-3 0  9998", "line2": "2 64902  97.4353  52.2404 0000993 118.7701 241.3634 15.20212258 19547"}}, "geometry": {"type": "Point", "coordinates": [61.415565084084605, -49.29008871575428]}}, {"type": "Feature", "properties": {"norad_id": 64903, "name": "CO3D 1", "group": "resource", "lat": -50.15211447502654, "lon": 61.688264171897046, "alt_km": 512.8408126562481, "timestamp": "2025-12-02T06:27:52.679166+00:00", "meta": {"OBJECT_NAME": "CO3D 1", "OBJECT_ID": "2025-156E", "EPOCH": "2025-12-01T21:12:32.372064", "MEAN_MOTION": 15.20195514, "ECCENTRICITY": 9.98e-05, "INCLINATION": 97.4354, "RA_OF_ASC_NODE": 52.3054, "ARG_OF_PERICENTER": 114.4338, "MEAN_ANOMALY": 245.7002, "EPHEMERIS_TYPE": 0, "CLASSIFICATION_TYPE": "U", "NORAD_CAT_ID": 64903, "ELEMENT_SET_NO": 999, "REV_AT_EPOCH": 1955, "BSTAR": 0.00045831, "MEAN_MOTION_DOT": 9.865e-05, "MEAN_MOTION_DDOT": 0}, "tle": {"line1": "1 64903U 25156E   25335.88370801  .00009865  00000+0  45831-3 0  9995", "line2": "2 64903  97.4354  52.3054 0000998 114.4338 245.7002 15.20195514 19558"}}, "geometry": {"type": "Point", "coordinates": [61.688264171897046, -50.15211447502654]}}, {"type": "Feature", "properties": {"norad_id": 66514, "name": "SENTINEL-6B", "group": "resource", "lat": -44.6062688155381, "lon": 158.2825079271028, "alt_km": 1317.007473031048, "timestamp": "2025-12-02T06:27:52.679177+00:00", "meta": {"OBJECT_NAME": "SENTINEL-6B", "OBJECT_ID": "2025-264A", "EPOCH": "2025-12-01T19:31:31.024128", "MEAN_MOTION": 12.85877276, "ECCENTRICITY": 0.0011529, "INCLINATION": 66.0388, "RA_OF_ASC_NODE": 185.2519, "ARG_OF_PERICENTER": 268.8657, "MEAN_ANOMALY": 91.104, "EPHEMERIS_TYPE": 0, "CLASSIFICATION_TYPE": "U", "NORAD_CAT_ID": 66514, "ELEMENT_SET_NO": 999, "REV_AT_EPOCH": 188, "BSTAR": 0.00031232, "MEAN_MOTION_DOT": 1.5e-07, "MEAN_MOTION_DDOT": 0}, "tle": {"line1": "1 66514U 25264A   25335.81355352  .00000015  00000+0  31232-3 0  9990", "line2": "2 66514  66.0388 185.2519 0011529 268.8657  91.1040 12.85877276  1881"}}, "geometry": {"type": "Point", "coordinates": [158.2825079271028, -44.6062688155381]}}]}